STARLINK-36552          
1 67503U 26012L   26042.58335648 -.01840356  00000+0 -32713-1 0  9993
2 67503  42.9997 102.3367 0001470 282.9553  68.4310 15.52806099  4877
STARLINK-36512          
1 67504U 26012M   26042.58335648 -.00014378  00000+0 -23980-3 0  9998
2 67504  42.9999 102.4514 0001617 307.6951 356.9752 15.50567056  4875
STARLINK-36545          
1 67505U 26012N   26042.58335648 -.00672563  00000+0 -12278-1 0  9991
2 67505  42.9997 102.4067 0001254 277.8234  44.9316 15.51030145  4871
STARLINK-36553          
1 67506U 26012P   26042.58335648 -.02144294  00000+0 -37893-1 0  9999
2 67506  42.9999 102.3108 0001287 293.7994  67.9700 15.52933957  4871
STARLINK-36521          
1 67507U 26012Q   26042.58335648 -.02114528  00000+0 -37406-1 0  9997
2 67507  42.9996 102.3002 0001281 297.0009  69.0392 15.52856148  4876
STARLINK-36526          
1 67508U 26012R   26042.58335648 -.02119990  00000+0 -37536-1 0  9990
2 67508  43.0000 102.2867 0001191 291.0753  80.2008 15.52841624  4875
STARLINK-36541          
1 67509U 26012S   26042.46580008  .00093399  00000+0  15773-2 0  9990
2 67509  43.0004 104.0423 0001009 305.3098  54.7667 15.50608724  3738
STARLINK-36549          
1 67510U 26012T   26042.58335648 -.00272366  00000+0 -47775-2 0  9995
2 67510  43.0000 102.1548 0001085 283.2243 137.7486 15.50711896  4819
STARLINK-36540          
1 67511U 26012U   26042.52856242  .00116578  00000+0  19565-2 0  9994
2 67511  43.0003 103.6536 0001045 358.3468   1.7389 15.50679618  3743
STARLINK-36538          
1 67512U 26012V   26042.58335648 -.01901990  00000+0 -38440-1 0  9998
2 67512  42.9999 102.5368 0000936 294.8010 334.3130 15.48810090  4874
STARLINK-36531          
1 67513U 26012W   26042.58335648 -.01871553  00000+0 -35894-1 0  9990
2 67513  42.9996 102.4647 0001356 284.1155  14.5240 15.50226545  4812
STARLINK-36530          
1 67514U 26012X   26042.58335648 -.01259013  00000+0 -23378-1 0  9996
2 67514  42.9997 102.5135 0001270 272.3868   6.3336 15.50918512  4819
