CCSDS_OMM_VERS = 2.0
CREATION_DATE  = 
ORIGINATOR     = 

OBJECT_NAME    = STARLINK-36552
OBJECT_ID      = 2026-012L
CENTER_NAME    = EARTH
REF_FRAME      = TEME
TIME_SYSTEM    = UTC
MEAN_ELEMENT_THEORY = SGP/SGP4

EPOCH          = 2026-02-11T14:00:01.999872
MEAN_MOTION    = 15.52806099
ECCENTRICITY   = .00014709
INCLINATION    = 42.9997
RA_OF_ASC_NODE = 102.3367
ARG_OF_PERICENTER = 282.9553
MEAN_ANOMALY   = 68.4310

EPHEMERIS_TYPE = 0
CLASSIFICATION_TYPE = U
NORAD_CAT_ID   = 67503
ELEMENT_SET_NO = 999
REV_AT_EPOCH   = 487
BSTAR          = -.32712914E-1
MEAN_MOTION_DOT = -.1840356E-1
MEAN_MOTION_DDOT = 0

CCSDS_OMM_VERS = 2.0
CREATION_DATE  = 
ORIGINATOR     = 

OBJECT_NAME    = STARLINK-36512
OBJECT_ID      = 2026-012M
CENTER_NAME    = EARTH
REF_FRAME      = TEME
TIME_SYSTEM    = UTC
MEAN_ELEMENT_THEORY = SGP/SGP4

EPOCH          = 2026-02-11T14:00:01.999872
MEAN_MOTION    = 15.50567056
ECCENTRICITY   = .00016174
INCLINATION    = 42.9999
RA_OF_ASC_NODE = 102.4514
ARG_OF_PERICENTER = 307.6951
MEAN_ANOMALY   = 356.9752

EPHEMERIS_TYPE = 0
CLASSIFICATION_TYPE = U
NORAD_CAT_ID   = 67504
ELEMENT_SET_NO = 999
REV_AT_EPOCH   = 487
BSTAR          = -.23979786E-3
MEAN_MOTION_DOT = -.14378E-3
MEAN_MOTION_DDOT = 0

CCSDS_OMM_VERS = 2.0
CREATION_DATE  = 
ORIGINATOR     = 

OBJECT_NAME    = STARLINK-36545
OBJECT_ID      = 2026-012N
CENTER_NAME    = EARTH
REF_FRAME      = TEME
TIME_SYSTEM    = UTC
MEAN_ELEMENT_THEORY = SGP/SGP4

EPOCH          = 2026-02-11T14:00:01.999872
MEAN_MOTION    = 15.51030145
ECCENTRICITY   = .00012549
INCLINATION    = 42.9997
RA_OF_ASC_NODE = 102.4067
ARG_OF_PERICENTER = 277.8234
MEAN_ANOMALY   = 44.9316

EPHEMERIS_TYPE = 0
CLASSIFICATION_TYPE = U
NORAD_CAT_ID   = 67505
ELEMENT_SET_NO = 999
REV_AT_EPOCH   = 487
BSTAR          = -.12277676E-1
MEAN_MOTION_DOT = -.672563E-2
MEAN_MOTION_DDOT = 0

CCSDS_OMM_VERS = 2.0
CREATION_DATE  = 
ORIGINATOR     = 

OBJECT_NAME    = STARLINK-36553
OBJECT_ID      = 2026-012P
CENTER_NAME    = EARTH
REF_FRAME      = TEME
TIME_SYSTEM    = UTC
MEAN_ELEMENT_THEORY = SGP/SGP4

EPOCH          = 2026-02-11T14:00:01.999872
MEAN_MOTION    = 15.52933957
ECCENTRICITY   = .00012878
INCLINATION    = 42.9999
RA_OF_ASC_NODE = 102.3108
ARG_OF_PERICENTER = 293.7994
MEAN_ANOMALY   = 67.9700

EPHEMERIS_TYPE = 0
CLASSIFICATION_TYPE = U
NORAD_CAT_ID   = 67506
ELEMENT_SET_NO = 999
REV_AT_EPOCH   = 487
BSTAR          = -.37892611E-1
MEAN_MOTION_DOT = -.2144294E-1
MEAN_MOTION_DDOT = 0

CCSDS_OMM_VERS = 2.0
CREATION_DATE  = 
ORIGINATOR     = 

OBJECT_NAME    = STARLINK-36521
OBJECT_ID      = 2026-012Q
CENTER_NAME    = EARTH
REF_FRAME      = TEME
TIME_SYSTEM    = UTC
MEAN_ELEMENT_THEORY = SGP/SGP4

EPOCH          = 2026-02-11T14:00:01.999872
MEAN_MOTION    = 15.52856148
ECCENTRICITY   = .00012816
INCLINATION    = 42.9996
RA_OF_ASC_NODE = 102.3002
ARG_OF_PERICENTER = 297.0009
MEAN_ANOMALY   = 69.0392

EPHEMERIS_TYPE = 0
CLASSIFICATION_TYPE = U
NORAD_CAT_ID   = 67507
ELEMENT_SET_NO = 999
REV_AT_EPOCH   = 487
BSTAR          = -.37406474E-1
MEAN_MOTION_DOT = -.2114528E-1
MEAN_MOTION_DDOT = 0

CCSDS_OMM_VERS = 2.0
CREATION_DATE  = 
ORIGINATOR     = 

OBJECT_NAME    = STARLINK-36526
OBJECT_ID      = 2026-012R
CENTER_NAME    = EARTH
REF_FRAME      = TEME
TIME_SYSTEM    = UTC
MEAN_ELEMENT_THEORY = SGP/SGP4

EPOCH          = 2026-02-11T14:00:01.999872
MEAN_MOTION    = 15.52841624
ECCENTRICITY   = .00011911
INCLINATION    = 43.0000
RA_OF_ASC_NODE = 102.2867
ARG_OF_PERICENTER = 291.0753
MEAN_ANOMALY   = 80.2008

EPHEMERIS_TYPE = 0
CLASSIFICATION_TYPE = U
NORAD_CAT_ID   = 67508
ELEMENT_SET_NO = 999
REV_AT_EPOCH   = 487
BSTAR          = -.37536456E-1
MEAN_MOTION_DOT = -.211999E-1
MEAN_MOTION_DDOT = 0

CCSDS_OMM_VERS = 2.0
CREATION_DATE  = 
ORIGINATOR     = 

OBJECT_NAME    = STARLINK-36541
OBJECT_ID      = 2026-012S
CENTER_NAME    = EARTH
REF_FRAME      = TEME
TIME_SYSTEM    = UTC
MEAN_ELEMENT_THEORY = SGP/SGP4

EPOCH          = 2026-02-11T11:10:45.126912
MEAN_MOTION    = 15.50608724
ECCENTRICITY   = .00010094
INCLINATION    = 43.0004
RA_OF_ASC_NODE = 104.0423
ARG_OF_PERICENTER = 305.3098
MEAN_ANOMALY   = 54.7667

EPHEMERIS_TYPE = 0
CLASSIFICATION_TYPE = U
NORAD_CAT_ID   = 67509
ELEMENT_SET_NO = 999
REV_AT_EPOCH   = 373
BSTAR          = .15772794E-2
MEAN_MOTION_DOT = .93399E-3
MEAN_MOTION_DDOT = 0

CCSDS_OMM_VERS = 2.0
CREATION_DATE  = 
ORIGINATOR     = 

OBJECT_NAME    = STARLINK-36549
OBJECT_ID      = 2026-012T
CENTER_NAME    = EARTH
REF_FRAME      = TEME
TIME_SYSTEM    = UTC
MEAN_ELEMENT_THEORY = SGP/SGP4

EPOCH          = 2026-02-11T14:00:01.999872
MEAN_MOTION    = 15.50711896
ECCENTRICITY   = .00010852
INCLINATION    = 43.0000
RA_OF_ASC_NODE = 102.1548
ARG_OF_PERICENTER = 283.2243
MEAN_ANOMALY   = 137.7486

EPHEMERIS_TYPE = 0
CLASSIFICATION_TYPE = U
NORAD_CAT_ID   = 67510
ELEMENT_SET_NO = 999
REV_AT_EPOCH   = 481
BSTAR          = -.47775157E-2
MEAN_MOTION_DOT = -.272366E-2
MEAN_MOTION_DDOT = 0

CCSDS_OMM_VERS = 2.0
CREATION_DATE  = 
ORIGINATOR     = 

OBJECT_NAME    = STARLINK-36540
OBJECT_ID      = 2026-012U
CENTER_NAME    = EARTH
REF_FRAME      = TEME
TIME_SYSTEM    = UTC
MEAN_ELEMENT_THEORY = SGP/SGP4

EPOCH          = 2026-02-11T12:41:07.793088
MEAN_MOTION    = 15.50679618
ECCENTRICITY   = .00010458
INCLINATION    = 43.0003
RA_OF_ASC_NODE = 103.6536
ARG_OF_PERICENTER = 358.3468
MEAN_ANOMALY   = 1.7389

EPHEMERIS_TYPE = 0
CLASSIFICATION_TYPE = U
NORAD_CAT_ID   = 67511
ELEMENT_SET_NO = 999
REV_AT_EPOCH   = 374
BSTAR          = .19565036E-2
MEAN_MOTION_DOT = .116578E-2
MEAN_MOTION_DDOT = 0

CCSDS_OMM_VERS = 2.0
CREATION_DATE  = 
ORIGINATOR     = 

OBJECT_NAME    = STARLINK-36538
OBJECT_ID      = 2026-012V
CENTER_NAME    = EARTH
REF_FRAME      = TEME
TIME_SYSTEM    = UTC
MEAN_ELEMENT_THEORY = SGP/SGP4

EPOCH          = 2026-02-11T14:00:01.999872
MEAN_MOTION    = 15.48810090
ECCENTRICITY   = .00009361
INCLINATION    = 42.9999
RA_OF_ASC_NODE = 102.5368
ARG_OF_PERICENTER = 294.8010
MEAN_ANOMALY   = 334.3130

EPHEMERIS_TYPE = 0
CLASSIFICATION_TYPE = U
NORAD_CAT_ID   = 67512
ELEMENT_SET_NO = 999
REV_AT_EPOCH   = 487
BSTAR          = -.38439829E-1
MEAN_MOTION_DOT = -.190199E-1
MEAN_MOTION_DDOT = 0

CCSDS_OMM_VERS = 2.0
CREATION_DATE  = 
ORIGINATOR     = 

OBJECT_NAME    = STARLINK-36531
OBJECT_ID      = 2026-012W
CENTER_NAME    = EARTH
REF_FRAME      = TEME
TIME_SYSTEM    = UTC
MEAN_ELEMENT_THEORY = SGP/SGP4

EPOCH          = 2026-02-11T14:00:01.999872
MEAN_MOTION    = 15.50226545
ECCENTRICITY   = .00013561
INCLINATION    = 42.9996
RA_OF_ASC_NODE = 102.4647
ARG_OF_PERICENTER = 284.1155
MEAN_ANOMALY   = 14.5240

EPHEMERIS_TYPE = 0
CLASSIFICATION_TYPE = U
NORAD_CAT_ID   = 67513
ELEMENT_SET_NO = 999
REV_AT_EPOCH   = 481
BSTAR          = -.35893919E-1
MEAN_MOTION_DOT = -.1871553E-1
MEAN_MOTION_DDOT = 0

CCSDS_OMM_VERS = 2.0
CREATION_DATE  = 
ORIGINATOR     = 

OBJECT_NAME    = STARLINK-36530
OBJECT_ID      = 2026-012X
CENTER_NAME    = EARTH
REF_FRAME      = TEME
TIME_SYSTEM    = UTC
MEAN_ELEMENT_THEORY = SGP/SGP4

EPOCH          = 2026-02-11T14:00:01.999872
MEAN_MOTION    = 15.50918512
ECCENTRICITY   = .000127
INCLINATION    = 42.9997
RA_OF_ASC_NODE = 102.5135
ARG_OF_PERICENTER = 272.3868
MEAN_ANOMALY   = 6.3336

EPHEMERIS_TYPE = 0
CLASSIFICATION_TYPE = U
NORAD_CAT_ID   = 67514
ELEMENT_SET_NO = 999
REV_AT_EPOCH   = 481
BSTAR          = -.23378178E-1
MEAN_MOTION_DOT = -.1259013E-1
MEAN_MOTION_DDOT = 0

